{
"type": "FeatureCollection",
"name": "shoukasen",
"crs": { "type": "name", "properties": { "name": "urn:ogc:def:crs:OGC:1.3:CRS84" } },
"features": [
{ "type": "Feature", "properties": { "Name": "羽広001" }, "geometry": { "type": "Point", "coordinates": [ 137.924342, 35.879186, 0.0 ] } },
{ "type": "Feature", "properties": { "Name": "羽広002" }, "geometry": { "type": "Point", "coordinates": [ 137.922947, 35.879683, 0.0 ] } },
{ "type": "Feature", "properties": { "Name": "羽広003" }, "geometry": { "type": "Point", "coordinates": [ 137.921997, 35.880198, 0.0 ] } },
{ "type": "Feature", "properties": { "Name": "羽広004" }, "geometry": { "type": "Point", "coordinates": [ 137.922511, 35.879211, 0.0 ] } },
{ "type": "Feature", "properties": { "Name": "羽広005" }, "geometry": { "type": "Point", "coordinates": [ 137.92104, 35.880607, 0.0 ] } },
{ "type": "Feature", "properties": { "Name": "羽広006" }, "geometry": { "type": "Point", "coordinates": [ 137.920787, 35.88279, 0.0 ] } },
{ "type": "Feature", "properties": { "Name": "羽広007" }, "geometry": { "type": "Point", "coordinates": [ 137.923135, 35.878488, 0.0 ] } },
{ "type": "Feature", "properties": { "Name": "羽広008" }, "geometry": { "type": "Point", "coordinates": [ 137.919952, 35.884724, 0.0 ] } },
{ "type": "Feature", "properties": { "Name": "羽広009" }, "geometry": { "type": "Point", "coordinates": [ 137.924997, 35.883993, 0.0 ] } },
{ "type": "Feature", "properties": { "Name": "羽広012" }, "geometry": { "type": "Point", "coordinates": [ 137.926152, 35.882625, 0.0 ] } },
{ "type": "Feature", "properties": { "Name": "羽広032" }, "geometry": { "type": "Point", "coordinates": [ 137.92462, 35.881727, 0.0 ] } },
{ "type": "Feature", "properties": { "Name": "羽広034" }, "geometry": { "type": "Point", "coordinates": [ 137.925101, 35.87884, 0.0 ] } },
{ "type": "Feature", "properties": { "Name": "羽広035" }, "geometry": { "type": "Point", "coordinates": [ 137.925873, 35.880224, 0.0 ] } },
{ "type": "Feature", "properties": { "Name": "羽広038" }, "geometry": { "type": "Point", "coordinates": [ 137.918599, 35.883978, 0.0 ] } },
{ "type": "Feature", "properties": { "Name": "羽広040" }, "geometry": { "type": "Point", "coordinates": [ 137.917913, 35.881346, 0.0 ] } },
{ "type": "Feature", "properties": { "Name": "羽広041" }, "geometry": { "type": "Point", "coordinates": [ 137.921062, 35.884505, 0.0 ] } },
{ "type": "Feature", "properties": { "Name": "羽広042" }, "geometry": { "type": "Point", "coordinates": [ 137.925505, 35.882135, 0.0 ] } },
{ "type": "Feature", "properties": { "Name": "羽広056" }, "geometry": { "type": "Point", "coordinates": [ 137.919894, 35.882117, 0.0 ] } },
{ "type": "Feature", "properties": { "Name": "羽広057" }, "geometry": { "type": "Point", "coordinates": [ 137.918526, 35.882374, 0.0 ] } },
{ "type": "Feature", "properties": { "Name": "上戸001" }, "geometry": { "type": "Point", "coordinates": [ 137.916659, 35.868406, 0.0 ] } },
{ "type": "Feature", "properties": { "Name": "上戸002" }, "geometry": { "type": "Point", "coordinates": [ 137.915643, 35.869242, 0.0 ] } },
{ "type": "Feature", "properties": { "Name": "上戸003" }, "geometry": { "type": "Point", "coordinates": [ 137.91499, 35.868736, 0.0 ] } },
{ "type": "Feature", "properties": { "Name": "上戸004" }, "geometry": { "type": "Point", "coordinates": [ 137.924832, 35.874251, 0.0 ] } },
{ "type": "Feature", "properties": { "Name": "上戸005" }, "geometry": { "type": "Point", "coordinates": [ 137.915445, 35.86983, 0.0 ] } },
{ "type": "Feature", "properties": { "Name": "上戸006" }, "geometry": { "type": "Point", "coordinates": [ 137.914125, 35.869411, 0.0 ] } },
{ "type": "Feature", "properties": { "Name": "上戸007" }, "geometry": { "type": "Point", "coordinates": [ 137.914013, 35.870462, 0.0 ] } },
{ "type": "Feature", "properties": { "Name": "上戸008" }, "geometry": { "type": "Point", "coordinates": [ 137.915095, 35.87072, 0.0 ] } },
{ "type": "Feature", "properties": { "Name": "上戸009" }, "geometry": { "type": "Point", "coordinates": [ 137.915711, 35.871523, 0.0 ] } },
{ "type": "Feature", "properties": { "Name": "上戸010" }, "geometry": { "type": "Point", "coordinates": [ 137.914368, 35.871622, 0.0 ] } },
{ "type": "Feature", "properties": { "Name": "上戸011" }, "geometry": { "type": "Point", "coordinates": [ 137.913749, 35.872143, 0.0 ] } },
{ "type": "Feature", "properties": { "Name": "上戸012" }, "geometry": { "type": "Point", "coordinates": [ 137.913495, 35.871893, 0.0 ] } },
{ "type": "Feature", "properties": { "Name": "上戸013" }, "geometry": { "type": "Point", "coordinates": [ 137.915548, 35.873485, 0.0 ] } },
{ "type": "Feature", "properties": { "Name": "上戸014" }, "geometry": { "type": "Point", "coordinates": [ 137.916554, 35.873487, 0.0 ] } },
{ "type": "Feature", "properties": { "Name": "上戸015" }, "geometry": { "type": "Point", "coordinates": [ 137.917621, 35.869617, 0.0 ] } },
{ "type": "Feature", "properties": { "Name": "上戸016" }, "geometry": { "type": "Point", "coordinates": [ 137.917676, 35.873832, 0.0 ] } },
{ "type": "Feature", "properties": { "Name": "上戸017" }, "geometry": { "type": "Point", "coordinates": [ 137.916923, 35.872918, 0.0 ] } },
{ "type": "Feature", "properties": { "Name": "上戸018" }, "geometry": { "type": "Point", "coordinates": [ 137.917942, 35.873056, 0.0 ] } },
{ "type": "Feature", "properties": { "Name": "上戸019" }, "geometry": { "type": "Point", "coordinates": [ 137.918539, 35.873672, 0.0 ] } },
{ "type": "Feature", "properties": { "Name": "上戸020" }, "geometry": { "type": "Point", "coordinates": [ 137.918987, 35.873006, 0.0 ] } },
{ "type": "Feature", "properties": { "Name": "上戸021" }, "geometry": { "type": "Point", "coordinates": [ 137.922278, 35.874759, 0.0 ] } },
{ "type": "Feature", "properties": { "Name": "上戸022" }, "geometry": { "type": "Point", "coordinates": [ 137.925912, 35.875322, 0.0 ] } },
{ "type": "Feature", "properties": { "Name": "上戸023" }, "geometry": { "type": "Point", "coordinates": [ 137.921039, 35.878192, 0.0 ] } },
{ "type": "Feature", "properties": { "Name": "上戸024" }, "geometry": { "type": "Point", "coordinates": [ 137.926747, 35.878124, 0.0 ] } },
{ "type": "Feature", "properties": { "Name": "上戸025" }, "geometry": { "type": "Point", "coordinates": [ 137.918607, 35.877139, 0.0 ] } },
{ "type": "Feature", "properties": { "Name": "上戸026" }, "geometry": { "type": "Point", "coordinates": [ 137.915258, 35.875153, 0.0 ] } },
{ "type": "Feature", "properties": { "Name": "上戸027" }, "geometry": { "type": "Point", "coordinates": [ 137.918524, 35.876403, 0.0 ] } },
{ "type": "Feature", "properties": { "Name": "上戸028" }, "geometry": { "type": "Point", "coordinates": [ 137.917463, 35.875716, 0.0 ] } },
{ "type": "Feature", "properties": { "Name": "上戸029" }, "geometry": { "type": "Point", "coordinates": [ 137.91403, 35.873352, 0.0 ] } },
{ "type": "Feature", "properties": { "Name": "上戸030" }, "geometry": { "type": "Point", "coordinates": [ 137.9256, 35.864426, 0.0 ] } },
{ "type": "Feature", "properties": { "Name": "上戸031" }, "geometry": { "type": "Point", "coordinates": [ 137.922969, 35.876494, 0.0 ] } },
{ "type": "Feature", "properties": { "Name": "上戸032" }, "geometry": { "type": "Point", "coordinates": [ 137.923678, 35.875578, 0.0 ] } },
{ "type": "Feature", "properties": { "Name": "上戸033" }, "geometry": { "type": "Point", "coordinates": [ 137.921779, 35.877351, 0.0 ] } },
{ "type": "Feature", "properties": { "Name": "上戸034" }, "geometry": { "type": "Point", "coordinates": [ 137.919839, 35.873277, 0.0 ] } },
{ "type": "Feature", "properties": { "Name": "上戸035" }, "geometry": { "type": "Point", "coordinates": [ 137.920544, 35.873857, 0.0 ] } },
{ "type": "Feature", "properties": { "Name": "上戸036" }, "geometry": { "type": "Point", "coordinates": [ 137.926158, 35.872873, 0.0 ] } },
{ "type": "Feature", "properties": { "Name": "上戸037" }, "geometry": { "type": "Point", "coordinates": [ 137.927251, 35.864211, 0.0 ] } },
{ "type": "Feature", "properties": { "Name": "上戸038" }, "geometry": { "type": "Point", "coordinates": [ 137.924439, 35.86455, 0.0 ] } },
{ "type": "Feature", "properties": { "Name": "上戸040" }, "geometry": { "type": "Point", "coordinates": [ 137.920158, 35.879753, 0.0 ] } },
{ "type": "Feature", "properties": { "Name": "上戸041" }, "geometry": { "type": "Point", "coordinates": [ 137.917058, 35.879048, 0.0 ] } },
{ "type": "Feature", "properties": { "Name": "上戸042" }, "geometry": { "type": "Point", "coordinates": [ 137.92074, 35.872383, 0.0 ] } },
{ "type": "Feature", "properties": { "Name": "中条001" }, "geometry": { "type": "Point", "coordinates": [ 137.911884, 35.870111, 0.0 ] } },
{ "type": "Feature", "properties": { "Name": "中条002" }, "geometry": { "type": "Point", "coordinates": [ 137.910693, 35.86982, 0.0 ] } },
{ "type": "Feature", "properties": { "Name": "中条003" }, "geometry": { "type": "Point", "coordinates": [ 137.909723, 35.870964, 0.0 ] } },
{ "type": "Feature", "properties": { "Name": "中条004" }, "geometry": { "type": "Point", "coordinates": [ 137.910052, 35.86887, 0.0 ] } },
{ "type": "Feature", "properties": { "Name": "中条005" }, "geometry": { "type": "Point", "coordinates": [ 137.911774, 35.869066, 0.0 ] } },
{ "type": "Feature", "properties": { "Name": "中条006" }, "geometry": { "type": "Point", "coordinates": [ 137.910967, 35.868162, 0.0 ] } },
{ "type": "Feature", "properties": { "Name": "中条007" }, "geometry": { "type": "Point", "coordinates": [ 137.905523, 35.868772, 0.0 ] } },
{ "type": "Feature", "properties": { "Name": "中条008" }, "geometry": { "type": "Point", "coordinates": [ 137.907308, 35.866282, 0.0 ] } },
{ "type": "Feature", "properties": { "Name": "中条009" }, "geometry": { "type": "Point", "coordinates": [ 137.908402, 35.8688, 0.0 ] } },
{ "type": "Feature", "properties": { "Name": "中条010" }, "geometry": { "type": "Point", "coordinates": [ 137.90686, 35.869726, 0.0 ] } },
{ "type": "Feature", "properties": { "Name": "中条011" }, "geometry": { "type": "Point", "coordinates": [ 137.903783, 35.869921, 0.0 ] } },
{ "type": "Feature", "properties": { "Name": "中条012" }, "geometry": { "type": "Point", "coordinates": [ 137.909484, 35.872774, 0.0 ] } },
{ "type": "Feature", "properties": { "Name": "中条013" }, "geometry": { "type": "Point", "coordinates": [ 137.909514, 35.871605, 0.0 ] } },
{ "type": "Feature", "properties": { "Name": "中条014" }, "geometry": { "type": "Point", "coordinates": [ 137.911139, 35.87197, 0.0 ] } },
{ "type": "Feature", "properties": { "Name": "大萱012" }, "geometry": { "type": "Point", "coordinates": [ 137.92851, 35.880733, 0.0 ] } },
{ "type": "Feature", "properties": { "Name": "大萱026" }, "geometry": { "type": "Point", "coordinates": [ 137.933236, 35.87312, 0.0 ] } },
{ "type": "Feature", "properties": { "Name": "大萱027" }, "geometry": { "type": "Point", "coordinates": [ 137.931334, 35.872169, 0.0 ] } },
{ "type": "Feature", "properties": { "Name": "大萱028" }, "geometry": { "type": "Point", "coordinates": [ 137.930252, 35.874393, 0.0 ] } },
{ "type": "Feature", "properties": { "Name": "大萱029" }, "geometry": { "type": "Point", "coordinates": [ 137.929457, 35.874682, 0.0 ] } },
{ "type": "Feature", "properties": { "Name": "大萱030" }, "geometry": { "type": "Point", "coordinates": [ 137.927629, 35.875072, 0.0 ] } },
{ "type": "Feature", "properties": { "Name": "大萱031" }, "geometry": { "type": "Point", "coordinates": [ 137.926824, 35.875845, 0.0 ] } },
{ "type": "Feature", "properties": { "Name": "大萱032" }, "geometry": { "type": "Point", "coordinates": [ 137.928031, 35.876474, 0.0 ] } },
{ "type": "Feature", "properties": { "Name": "大萱033" }, "geometry": { "type": "Point", "coordinates": [ 137.928519, 35.876102, 0.0 ] } },
{ "type": "Feature", "properties": { "Name": "大萱034" }, "geometry": { "type": "Point", "coordinates": [ 137.929756, 35.876466, 0.0 ] } },
{ "type": "Feature", "properties": { "Name": "大萱035" }, "geometry": { "type": "Point", "coordinates": [ 137.927433, 35.877474, 0.0 ] } },
{ "type": "Feature", "properties": { "Name": "大萱036" }, "geometry": { "type": "Point", "coordinates": [ 137.928209, 35.878583, 0.0 ] } },
{ "type": "Feature", "properties": { "Name": "大萱037" }, "geometry": { "type": "Point", "coordinates": [ 137.929739, 35.880971, 0.0 ] } },
{ "type": "Feature", "properties": { "Name": "大萱038" }, "geometry": { "type": "Point", "coordinates": [ 137.933683, 35.877751, 0.0 ] } },
{ "type": "Feature", "properties": { "Name": "大萱044" }, "geometry": { "type": "Point", "coordinates": [ 137.929795, 35.875564, 0.0 ] } },
{ "type": "Feature", "properties": { "Name": "大萱045" }, "geometry": { "type": "Point", "coordinates": [ 137.931833, 35.873604, 0.0 ] } },
{ "type": "Feature", "properties": { "Name": "大萱046" }, "geometry": { "type": "Point", "coordinates": [ 137.927628, 35.875603, 0.0 ] } },
{ "type": "Feature", "properties": { "Name": "大萱047" }, "geometry": { "type": "Point", "coordinates": [ 137.929057, 35.873083, 0.0 ] } },
{ "type": "Feature", "properties": { "Name": "大萱048" }, "geometry": { "type": "Point", "coordinates": [ 137.92874, 35.878212, 0.0 ] } },
{ "type": "Feature", "properties": { "Name": "大萱056" }, "geometry": { "type": "Point", "coordinates": [ 137.932466, 35.875391, 0.0 ] } },
{ "type": "Feature", "properties": { "Name": "大萱057" }, "geometry": { "type": "Point", "coordinates": [ 137.932451, 35.872922, 0.0 ] } },
{ "type": "Feature", "properties": { "Name": "大萱062" }, "geometry": { "type": "Point", "coordinates": [ 137.931168, 35.878804, 0.0 ] } },
{ "type": "Feature", "properties": { "Name": "大萱063" }, "geometry": { "type": "Point", "coordinates": [ 137.929127, 35.877285, 0.0 ] } },
{ "type": "Feature", "properties": { "Name": "大萱064" }, "geometry": { "type": "Point", "coordinates": [ 137.9307, 35.873018, 0.0 ] } },
{ "type": "Feature", "properties": { "Name": "大萱067" }, "geometry": { "type": "Point", "coordinates": [ 137.9294, 35.880236, 0.0 ] } },
{ "type": "Feature", "properties": { "Name": "大萱070" }, "geometry": { "type": "Point", "coordinates": [ 137.929322, 35.87814, 0.0 ] } },
{ "type": "Feature", "properties": { "Name": "大萱072" }, "geometry": { "type": "Point", "coordinates": [ 137.930975, 35.876211, 0.0 ] } },
{ "type": "Feature", "properties": { "Name": "大萱073" }, "geometry": { "type": "Point", "coordinates": [ 137.924877, 35.876561, 0.0 ] } },
{ "type": "Feature", "properties": { "Name": "大萱074" }, "geometry": { "type": "Point", "coordinates": [ 137.930738, 35.877966, 0.0 ] } },
{ "type": "Feature", "properties": { "Name": "大萱079" }, "geometry": { "type": "Point", "coordinates": [ 137.932144, 35.876874, 0.0 ] } },
{ "type": "Feature", "properties": { "Name": "大萱084" }, "geometry": { "type": "Point", "coordinates": [ 137.92925, 35.872129, 0.0 ] } },
{ "type": "Feature", "properties": { "Name": "大萱085" }, "geometry": { "type": "Point", "coordinates": [ 137.932773, 35.879016, 0.0 ] } },
{ "type": "Feature", "properties": { "Name": "大萱086" }, "geometry": { "type": "Point", "coordinates": [ 137.9348, 35.87609, 0.0 ] } },
{ "type": "Feature", "properties": { "Name": "大萱089" }, "geometry": { "type": "Point", "coordinates": [ 137.927442, 35.873681, 0.0 ] } },
{ "type": "Feature", "properties": { "Name": "大萱091" }, "geometry": { "type": "Point", "coordinates": [ 137.927284, 35.872781, 0.0 ] } },
{ "type": "Feature", "properties": { "Name": "大萱092" }, "geometry": { "type": "Point", "coordinates": [ 137.932018, 35.87966, 0.0 ] } },
{ "type": "Feature", "properties": { "Name": "大萱094" }, "geometry": { "type": "Point", "coordinates": [ 137.93409, 35.872411, 0.0 ] } }
]
}
